{"type": "FeatureCollection", "features": [ {"type": "Feature", "properties": {"norad_id": 31384, "name": "FENGYUN 1C DEB", "group": "fengyun-1c-debris", "lat": 48.18572632354142, "lon": 134.33446021129032, "alt_km": 790.763495835854, "timestamp": "2025-12-03T20:47:58.506145+00:00", "meta": {"OBJECT_NAME": "FENGYUN 1C DEB", "OBJECT_ID": "1999-025BSQ", "EPOCH": "2025-11-30T21:25:39.153792", "MEAN_MOTION": 13.85935935, "ECCENTRICITY": 0.04406256, "INCLINATION": 98.4563, "RA_OF_ASC_NODE": 302.0658, "ARG_OF_PERICENTER": 74.1899, "MEAN_ANOMALY": 342.7882, "EPHEMERIS_TYPE": 0, "CLASSIFICATION_TYPE": "U", "NORAD_CAT_ID": 31384, "ELEMENT_SET_NO": 999, "REV_AT_EPOCH": 92860, "BSTAR": 0.0021210825, "MEAN_MOTION_DOT": 5.211e-05, "MEAN_MOTION_DDOT": 0}, "tle": {"line1": "1 31384U 99025BSQ 25334.89281428  .00005211  00000+0  21211-2 0  9990", "line2": "2 31384  98.4563 302.0658 0440625  74.1899 342.7882 13.85935935928609"}}, "geometry": {"type": "Point", "coordinates": [134.33446021129032, 48.18572632354142]}}, {"type": "Feature", "properties": {"norad_id": 31385, "name": "FENGYUN 1C DEB", "group": "fengyun-1c-debris", "lat": -50.6756913313104, "lon": -123.54306042101027, "alt_km": 834.9184949765513, "timestamp": "2025-12-03T20:47:58.506155+00:00", "meta": {"OBJECT_NAME": "FENGYUN 1C DEB", "OBJECT_ID": "1999-025BSR", "EPOCH": "2025-12-01T00:22:37.155648", "MEAN_MOTION": 14.43974622, "ECCENTRICITY": 0.01349077, "INCLINATION": 98.9546, "RA_OF_ASC_NODE": 64.5546, "ARG_OF_PERICENTER": 90.2451, "MEAN_ANOMALY": 88.8217, "EPHEMERIS_TYPE": 0, "CLASSIFICATION_TYPE": "U", "NORAD_CAT_ID": 31385, "ELEMENT_SET_NO": 999, "REV_AT_EPOCH": 98445, "BSTAR": 0.00018371815, "MEAN_MOTION_DOT": 6.48e-06, "MEAN_MOTION_DDOT": 0}, "tle": {"line1": "1 31385U 99025BSR 25335.01570782  .00000648  00000+0  18372-3 0  9994", "line2": "2 31385  98.9546  64.5546 0134907  90.2451  88.8217 14.43974622984454"}}, "geometry": {"type": "Point", "coordinates": [-123.54306042101027, -50.6756913313104]}}, {"type": "Feature", "properties": {"norad_id": 31386, "name": "FENGYUN 1C DEB", "group": "fengyun-1c-debris", "lat": -23.760603879279657, "lon": -2.6188878587612483, "alt_km": 819.0091829147077, "timestamp": "2025-12-03T20:47:58.506166+00:00", "meta": {"OBJECT_NAME": "FENGYUN 1C DEB", "OBJECT_ID": "1999-025BSS", "EPOCH": "2025-11-30T23:36:27.682272", "MEAN_MOTION": 13.85933209, "ECCENTRICITY": 0.01976819, "INCLINATION": 98.4408, "RA_OF_ASC_NODE": 351.0324, "ARG_OF_PERICENTER": 316.7324, "MEAN_ANOMALY": 41.8452, "EPHEMERIS_TYPE": 0, "CLASSIFICATION_TYPE": "U", "NORAD_CAT_ID": 31386, "ELEMENT_SET_NO": 999, "REV_AT_EPOCH": 93699, "BSTAR": 0.0021212341, "MEAN_MOTION_DOT": 2.802e-05, "MEAN_MOTION_DDOT": 0}, "tle": {"line1": "1 31386U 99025BSS 25334.98365373  .00002802  00000+0  21212-2 0  9998", "line2": "2 31386  98.4408 351.0324 0197681 316.7324  41.8452 13.85933209936995"}}, "geometry": {"type": "Point", "coordinates": [-2.6188878587612483, -23.760603879279657]}}, {"type": "Feature", "properties": {"norad_id": 31387, "name": "FENGYUN 1C DEB", "group": "fengyun-1c-debris", "lat": 6.990921476810525, "lon": 37.230597187423285, "alt_km": 688.5152566505076, "timestamp": "2025-12-03T20:47:58.506177+00:00", "meta": {"OBJECT_NAME": "FENGYUN 1C DEB", "OBJECT_ID": "1999-025BST", "EPOCH": "2025-12-03T09:46:58.418976", "MEAN_MOTION": 14.13553434, "ECCENTRICITY": 0.0241338, "INCLINATION": 99.1685, "RA_OF_ASC_NODE": 215.625, "ARG_OF_PERICENTER": 197.5416, "MEAN_ANOMALY": 161.7313, "EPHEMERIS_TYPE": 0, "CLASSIFICATION_TYPE": "U", "NORAD_CAT_ID": 31387, "ELEMENT_SET_NO": 999, "REV_AT_EPOCH": 96165, "BSTAR": 0.00033503, "MEAN_MOTION_DOT": 7.83e-06, "MEAN_MOTION_DDOT": 0}, "tle": {"line1": "1 31387U 99025BST 25337.40762059  .00000783  00000+0  33503-3 0  9994", "line2": "2 31387  99.1685 215.6250 0241338 197.5416 161.7313 14.13553434961659"}}, "geometry": {"type": "Point", "coordinates": [37.230597187423285, 6.990921476810525]}}, {"type": "Feature", "properties": {"norad_id": 31388, "name": "FENGYUN 1C DEB", "group": "fengyun-1c-debris", "lat": -49.76862496731232, "lon": 135.50163126953126, "alt_km": 841.682992236927, "timestamp": "2025-12-03T20:47:58.506186+00:00", "meta": {"OBJECT_NAME": "FENGYUN 1C DEB", "OBJECT_ID": "1999-025BSU", "EPOCH": "2025-12-03T06:07:53.129856", "MEAN_MOTION": 14.07419415, "ECCENTRICITY": 0.0046166, "INCLINATION": 98.8042, "RA_OF_ASC_NODE": 325.4619, "ARG_OF_PERICENTER": 228.0098, "MEAN_ANOMALY": 147.5361, "EPHEMERIS_TYPE": 0, "CLASSIFICATION_TYPE": "U", "NORAD_CAT_ID": 31388, "ELEMENT_SET_NO": 999, "REV_AT_EPOCH": 96308, "BSTAR": 0.00030121, "MEAN_MOTION_DOT": 4.68e-06, "MEAN_MOTION_DDOT": 0}, "tle": {"line1": "1 31388U 99025BSU 25337.25547604  .00000468  00000+0  30121-3 0  9998", "line2": "2 31388  98.8042 325.4619 0046166 228.0098 147.5361 14.07419415963087"}}, "geometry": {"type": "Point", "coordinates": [135.50163126953126, -49.76862496731232]}}, {"type": "Feature", "properties": {"norad_id": 31389, "name": "FENGYUN 1C DEB", "group": "fengyun-1c-debris", "lat": -75.59184446463496, "lon": -75.85809635906216, "alt_km": 683.9147725517541, "timestamp": "2025-12-03T20:47:58.506197+00:00", "meta": {"OBJECT_NAME": "FENGYUN 1C DEB", "OBJECT_ID": "1999-025BSV", "EPOCH": "2025-12-03T09:53:27.656160", "MEAN_MOTION": 14.60249637, "ECCENTRICITY": 0.0030516, "INCLINATION": 99.0426, "RA_OF_ASC_NODE": 141.9537, "ARG_OF_PERICENTER": 216.4518, "MEAN_ANOMALY": 173.9957, "EPHEMERIS_TYPE": 0, "CLASSIFICATION_TYPE": "U", "NORAD_CAT_ID": 31389, "ELEMENT_SET_NO": 999, "REV_AT_EPOCH": 96361, "BSTAR": 0.0068184, "MEAN_MOTION_DOT": 0.00033216, "MEAN_MOTION_DDOT": 0}, "tle": {"line1": "1 31389U 99025BSV 25337.41212565  .00033216  00000+0  68184-2 0  9998", "line2": "2 31389  99.0426 141.9537 0030516 216.4518 173.9957 14.60249637963616"}}, "geometry": {"type": "Point", "coordinates": [-75.85809635906216, -75.59184446463496]}}, {"type": "Feature", "properties": {"norad_id": 31410, "name": "FENGYUN 1C DEB", "group": "fengyun-1c-debris", "lat": 36.88978553758026, "lon": -34.23165230084259, "alt_km": 818.2960204929404, "timestamp": "2025-12-03T20:47:58.506207+00:00", "meta": {"OBJECT_NAME": "FENGYUN 1C DEB", "OBJECT_ID": "1999-025BSW", "EPOCH": "2025-12-01T10:16:43.576896", "MEAN_MOTION": 14.44660711, "ECCENTRICITY": 0.01107684, "INCLINATION": 98.8365, "RA_OF_ASC_NODE": 136.529, "ARG_OF_PERICENTER": 320.6498, "MEAN_ANOMALY": 107.8693, "EPHEMERIS_TYPE": 0, "CLASSIFICATION_TYPE": "U", "NORAD_CAT_ID": 31410, "ELEMENT_SET_NO": 999, "REV_AT_EPOCH": 97588, "BSTAR": 0.0008135917, "MEAN_MOTION_DOT": 2.987e-05, "MEAN_MOTION_DDOT": 0}, "tle": {"line1": "1 31410U 99025BSW 25335.42828214  .00002987  00000+0  81359-3 0  9997", "line2": "2 31410  98.8365 136.5290 0110768 320.6498 107.8693 14.44660711975886"}}, "geometry": {"type": "Point", "coordinates": [-34.23165230084259, 36.88978553758026]}}, {"type": "Feature", "properties": {"norad_id": 31411, "name": "FENGYUN 1C DEB", "group": "fengyun-1c-debris", "lat": 71.72803522965452, "lon": 11.687978473487018, "alt_km": 855.8289622205921, "timestamp": "2025-12-03T20:47:58.506217+00:00", "meta": {"OBJECT_NAME": "FENGYUN 1C DEB", "OBJECT_ID": "1999-025BSX", "EPOCH": "2025-12-03T10:26:51.138240", "MEAN_MOTION": 14.27949599, "ECCENTRICITY": 0.0100693, "INCLINATION": 98.6694, "RA_OF_ASC_NODE": 38.7823, "ARG_OF_PERICENTER": 282.2604, "MEAN_ANOMALY": 95.0252, "EPHEMERIS_TYPE": 0, "CLASSIFICATION_TYPE": "U", "NORAD_CAT_ID": 31411, "ELEMENT_SET_NO": 999, "REV_AT_EPOCH": 94347, "BSTAR": 0.00067369, "MEAN_MOTION_DOT": 1.718e-05, "MEAN_MOTION_DDOT": 0}, "tle": {"line1": "1 31411U 99025BSX 25337.43531410  .00001718  00000+0  67369-3 0  9996", "line2": "2 31411  98.6694  38.7823 0100693 282.2604  95.0252 14.27949599943477"}}, "geometry": {"type": "Point", "coordinates": [11.687978473487018, 71.72803522965452]}}, {"type": "Feature", "properties": {"norad_id": 31412, "name": "FENGYUN 1C DEB", "group": "fengyun-1c-debris", "lat": -80.95893236904726, "lon": -6.80868968547674, "alt_km": 864.1140940059449, "timestamp": "2025-12-03T20:47:58.506228+00:00", "meta": {"OBJECT_NAME": "FENGYUN 1C DEB", "OBJECT_ID": "1999-025BSY", "EPOCH": "2025-11-28T06:38:13.979616", "MEAN_MOTION": 14.09684254, "ECCENTRICITY": 0.00844356, "INCLINATION": 98.5498, "RA_OF_ASC_NODE": 276.8981, "ARG_OF_PERICENTER": 16.021, "MEAN_ANOMALY": 344.3602, "EPHEMERIS_TYPE": 0, "CLASSIFICATION_TYPE": "U", "NORAD_CAT_ID": 31412, "ELEMENT_SET_NO": 999, "REV_AT_EPOCH": 60788, "BSTAR": 0.0021882226, "MEAN_MOTION_DOT": 3.927e-05, "MEAN_MOTION_DDOT": 0}, "tle": {"line1": "1 31412U 99025BSY 25332.27655069  .00003927  00000+0  21882-2 0  9994", "line2": "2 31412  98.5498 276.8981 0084435  16.0210 344.3602 14.09684254607885"}}, "geometry": {"type": "Point", "coordinates": [-6.80868968547674, -80.95893236904726]}}, {"type": "Feature", "properties": {"norad_id": 31415, "name": "FENGYUN 1C DEB", "group": "fengyun-1c-debris", "lat": -5.318506308961315, "lon": 108.05328510621905, "alt_km": 790.0279056661084, "timestamp": "2025-12-03T20:47:58.506238+00:00", "meta": {"OBJECT_NAME": "FENGYUN 1C DEB", "OBJECT_ID": "1999-025BTB", "EPOCH": "2025-11-30T02:58:22.044864", "MEAN_MOTION": 14.30472505, "ECCENTRICITY": 0.00637436, "INCLINATION": 99.637, "RA_OF_ASC_NODE": 284.8171, "ARG_OF_PERICENTER": 110.0761, "MEAN_ANOMALY": 250.7294, "EPHEMERIS_TYPE": 0, "CLASSIFICATION_TYPE": "U", "NORAD_CAT_ID": 31415, "ELEMENT_SET_NO": 999, "REV_AT_EPOCH": 62650, "BSTAR": 0.0013587885, "MEAN_MOTION_DOT": 3.567e-05, "MEAN_MOTION_DDOT": 0}, "tle": {"line1": "1 31415U 99025BTB 25334.12386626  .00003567  00000+0  13588-2 0  9997", "line2": "2 31415  99.6370 284.8171 0063743 110.0761 250.7294 14.30472505626509"}}, "geometry": {"type": "Point", "coordinates": [108.05328510621905, -5.318506308961315]}}]}